CSS (TIANHE)            
1 48274U 21035A   24149.47362951  .00021859  00000+0  21378-3 0  9991
2 48274  41.4663 203.3143 0002384 103.0796 257.0310 15.65614435176013
